STARLINK-4146           
1 53294C 22086BE  22365.11854167 -.00023958  00000-0 -15017-2 0  3654
2 53294  53.2193   2.0754 0002316  33.0914 139.3788 15.08876639    11
STARLINK-4522           
1 53388C 22097A   22365.11020833 -.00028240  00000-0 -17697-2 0  3650
2 53388  53.2168 312.1389 0002833  18.0910  89.2748 15.08887142    19
STARLINK-4523           
1 53389C 22097B   22365.11923611 -.00000139  00000-0 -86912-5 0  3653
2 53389  53.2159 312.0933 0002117  23.4823 172.7335 15.08860403    13
STARLINK-4517           
1 53390C 22097C   22365.11854167 -.00034934  00000-0 -21902-2 0  3659
2 53390  53.2166 312.0999 0002483  26.9404 145.7716 15.08879178    16
STARLINK-4521           
1 53391C 22097D   22365.11715278 -.00022006  00000-0 -13794-2 0  3656
2 53391  53.2167 312.1064 0002779  25.2168 179.9424 15.08872128    12
STARLINK-4535           
1 53392C 22097E   22365.11854167 -.00035429  00000-0 -22206-2 0  3659
2 53392  53.2163 312.0969 0002821  28.5386 224.1532 15.08889072    17
STARLINK-4530           
1 53393C 22097F   22365.11368056 -.00036502  00000-0 -22874-2 0  3651
2 53393  53.2161 312.1159 0003111  20.3122 185.9104 15.08896291    19
STARLINK-4544           
1 53394C 22097G   22365.11506944 -.00031502  00000-0 -19736-2 0  3650
2 53394  53.2168 301.8731 0002230  33.9866  29.7145 15.08901997    14
STARLINK-4534           
1 53395C 22097H   22365.09979167 -.00031205  00000-0 -19577-2 0  3652
2 53395  53.2138 312.1795 0002025  40.8304 129.8899 15.08852868    13
STARLINK-4524           
1 53396C 22097J   22365.11506944 -.00036998  00000-0 -23192-2 0  3657
2 53396  53.2162 312.1066 0002707  22.7396 311.0748 15.08886115    19
STARLINK-4515           
1 53397C 22097K   22365.11506944 -.00034894  00000-0 -21869-2 0  3650
2 53397  53.2162 312.1146 0002408  29.2864 244.5081 15.08891699    12
STARLINK-4512           
1 53398C 22097L   22365.11020833 -.00020614  00000-0 -12933-2 0  3656
2 53398  53.2168 312.1169 0001909  39.7648 307.5870 15.08838325    18
STARLINK-4528           
1 53399C 22097M   22365.11368056 -.00004798  00000-0 -30090-3 0  3659
2 53399  53.2161 312.1147 0002004  40.4862 265.7942 15.08835732    16
STARLINK-4520           
1 53400C 22097N   22365.11645833 -.00026318  00000-0 -16496-2 0  3658
2 53400  53.2187 312.0910 0002390  24.9110  56.4761 15.08879214    12
STARLINK-4525           
1 53401C 22097P   22365.11368056 -.00032488  00000-0 -20364-2 0  3652
2 53401  53.2164 312.1132 0002450  27.0663 319.2162 15.08883047    13
STARLINK-4499           
1 53402C 22097Q   22365.10812500 -.00056993  00000-0 -35764-2 0  3657
2 53402  53.2173 312.1224 0001264  73.5213 342.5459 15.08869501    12
STARLINK-4507           
1 53403C 22097R   22365.11437500 -.00031257  00000-0 -19591-2 0  3658
2 53403  53.2168 312.0962 0002185  30.7728 354.0490 15.08885780    14
STARLINK-4509           
1 53404C 22097S   22365.11576389 -.00035037  00000-0 -21955-2 0  3655
2 53404  53.2139 302.0907 0002164  34.7146 117.8191 15.08897938    17
STARLINK-4510           
1 53405C 22097T   22365.11506944 -.00029626  00000-0 -18569-2 0  3650
2 53405  53.2164 312.1038 0001640  50.7427  63.0694 15.08884320    12
STARLINK-4533           
1 53406C 22097U   22365.09354167 -.00030367  00000-0 -19027-2 0  3650
2 53406  53.2151 302.1883 0002280  33.8208  97.9189 15.08895418    11
STARLINK-4537           
1 53407C 22097V   22365.11229167 -.00020928  00000-0 -13115-2 0  3659
2 53407  53.2167 292.3442 0001657  53.8560 134.6861 15.08883478    19
STARLINK-4491           
1 53408C 22097W   22365.11229167 -.00036533  00000-0 -22896-2 0  3655
2 53408  53.2156 302.1091 0001972  37.0876 136.5921 15.08895833    18
STARLINK-4490           
1 53409C 22097X   22365.11229167 -.00025903  00000-0 -16226-2 0  3655
2 53409  53.2160 292.3028 0001366  86.2961 122.1976 15.08903166    12
STARLINK-4492           
1 53410C 22097Y   22365.11645833 -.00003987  00000-0 -25006-3 0  3654
2 53410  53.2157 302.0902 0002115  33.8161 182.4885 15.08837967    16
STARLINK-4497           
1 53411C 22097Z   22365.11645833 -.00032133  00000-0 -20144-2 0  3657
2 53411  53.2147 302.0856 0002786  20.1332 156.2487 15.08878089    14
STARLINK-4496           
1 53412C 22097AA  22365.11715278 -.00031959  00000-0 -20035-2 0  3653
2 53412  53.2165 302.0877 0002332  26.0823 254.0767 15.08879195    12
STARLINK-4500           
1 53413C 22097AB  22365.10673611 -.00033364  00000-0 -20931-2 0  3654
2 53413  53.2166 302.1367 0002288  35.2013 148.2680 15.08853099    15
STARLINK-4304           
1 53414C 22097AC  22365.11923611 -.00028667  00000-0 -17972-2 0  3655
2 53414  53.2172 302.0818 0002079  33.9813 277.5005 15.08874085    19
STARLINK-4479           
1 53415C 22097AD  22365.11854167 -.00031560  00000-0 -19787-2 0  3657
2 53415  53.2173 302.0846 0002056  36.3624 291.3654 15.08875229    19
STARLINK-4480           
1 53416C 22097AE  22365.10395833 -.00051301  00000-0 -32207-2 0  3654
2 53416  53.2183 302.1474 0002381  40.6161 262.6403 15.08845419    15
STARLINK-4484           
1 53417C 22097AF  22365.11298611 -.00035259  00000-0 -22102-2 0  3659
2 53417  53.2176 302.1021 0002730  27.5457 289.9361 15.08884697    12
STARLINK-4481           
1 53418C 22097AG  22365.11020833 -.00028790  00000-0 -18040-2 0  3657
2 53418  53.2170 291.6898 0001818  40.4321 117.2241 15.08894500    15
STARLINK-4476           
1 53419C 22097AH  22365.11784722 -.00039224  00000-0 -24586-2 0  3658
2 53419  53.2183 302.0859 0002413  32.8861 331.0113 15.08892384    12
STARLINK-4552           
1 53420C 22097AJ  22365.11923611 -.00027776  00000-0 -17407-2 0  3655
2 53420  53.2188 302.0843 0002033  34.1374  37.3031 15.08887388    17
STARLINK-4545           
1 53421C 22097AK  22365.11715278 -.00024791  00000-0 -15537-2 0  3650
2 53421  53.2185 302.0890 0002054  32.3367 347.7788 15.08882733    18
STARLINK-4546           
1 53422C 22097AL  22365.11715278 -.00034066  00000-0 -21350-2 0  3657
2 53422  53.2162 302.0978 0002679  28.3352  71.7648 15.08890633    10
STARLINK-4539           
1 53423C 22097AM  22365.09215278 -.00063973  00000-0 -40140-2 0  3657
2 53423  53.2189 302.2037 0002517  33.1382 231.0907 15.08878367    15
STARLINK-4532           
1 53424C 22097AN  22365.11854167 -.00030137  00000-0 -18888-2 0  3657
2 53424  53.2146 302.0887 0001725  46.1824 101.4879 15.08887042    13
STARLINK-4531           
1 53425C 22097AP  22365.10048611 -.00054942  00000-0 -34474-2 0  3655
2 53425  53.2179 302.1725 0002010  42.8761 306.6379 15.08870296    10
STARLINK-4558           
1 53426C 22097AQ  22365.11229167  .00038776  00000-0  24311-2 0  3658
2 53426  53.2159 292.2619 0001681  96.2490 132.3011 15.08805274    16
STARLINK-4541           
1 53427C 22097AR  22365.11298611 -.00007990  00000-0 -50093-3 0  3652
2 53427  53.2167 302.1169 0002813  18.9925  78.5031 15.08849350    15
STARLINK-4540           
1 53428C 22097AS  22365.11437500 -.00021244  00000-0 -13315-2 0  3658
2 53428  53.2161 292.1763 0001490  79.0670 200.9148 15.08876743    19
STARLINK-4543           
1 53429C 22097AT  22365.11784722 -.00020450  00000-0 -12814-2 0  3651
2 53429  53.2157 292.1986 0001553  60.1769 218.5962 15.08885667    16
STARLINK-4538           
1 53430C 22097AU  22365.11854167 -.00021500  00000-0 -13479-2 0  3659
2 53430  53.2139 292.1116 0001476  59.8998 262.8211 15.08866943    11
STARLINK-4548           
1 53431C 22097AV  22365.11715278 -.00025004  00000-0 -15671-2 0  3658
2 53431  53.2154 292.2106 0001595  59.9133 209.9184 15.08883140    12
STARLINK-4557           
1 53432C 22097AW  22365.10118056 -.00026729  00000-0 -16771-2 0  3656
2 53432  53.2167 291.9316 0001382  56.2370 312.2153 15.08843574    14
STARLINK-4549           
1 53433C 22097AX  22365.11854167 -.00028121  00000-0 -17619-2 0  3658
2 53433  53.2156 292.0790 0001516  64.7269 277.8575 15.08897342    17
STARLINK-4498           
1 53434C 22097AY  22365.11854167 -.00024978  00000-0 -15657-2 0  3655
2 53434  53.2178 291.8126 0001714  39.9400  82.9703 15.08877688    12
STARLINK-4542           
1 53435C 22097AZ  22365.11298611 -.00026601  00000-0 -16671-2 0  3654
2 53435  53.2164 291.8887 0001475  62.9437   4.5088 15.08886568    15
STARLINK-4527           
1 53436C 22097BA  22365.11854167 -.00023227  00000-0 -14555-2 0  3659
2 53436  53.2178 291.7722 0001701  49.2286  93.6563 15.08886504    17
STARLINK-4526           
1 53438C 22097BC  22365.11715278 -.00032706  00000-0 -20492-2 0  3659
2 53438  53.2179 291.7402 0001846  42.5306 112.7814 15.08901428    19
STARLINK-4519           
1 53439C 22097BD  22365.11715278 -.00015547  00000-0 -97415-3 0  3654
2 53439  53.2162 291.6983 0001449  73.7005 101.6619 15.08881876    10
STARLINK-4415           
1 53465C 22099A   22365.11923611 -.00014457  00000-0 -11272-2 0  3652
2 53465  97.6519 123.5926 0001126 145.4410 260.4044 15.01294878    15
STARLINK-4398           
1 53466C 22099B   22365.11645833 -.00016386  00000-0 -12777-2 0  3654
2 53466  97.6522 123.5879 0001178 161.7971 239.0604 15.01292088    12
STARLINK-4394           
1 53467C 22099C   22365.11854167 -.00016815  00000-0 -13116-2 0  3652
2 53467  97.6538 123.5889 0001319 151.0993 270.9640 15.01278971    13
STARLINK-4400           
1 53468C 22099D   22365.11576389 -.00025435  00000-0 -19832-2 0  3659
2 53468  97.6531 123.5831 0001584 127.0736 290.0159 15.01303033    12
STARLINK-4399           
1 53469C 22099E   22365.11715278 -.00025107  00000-0 -19576-2 0  3653
2 53469  97.6538 123.5842 0001023 145.3844 289.1702 15.01304590    15
STARLINK-4393           
1 53470C 22099F   22365.11784722 -.00022676  00000-0 -17683-2 0  3650
2 53470  97.6540 123.5870 0001313 144.0262 293.0286 15.01296387    18
STARLINK-4316           
1 53471C 22099G   22365.11923611 -.00021195  00000-0 -16526-2 0  3653
2 53471  97.6547 123.5830 0001713 113.7203 352.1142 15.01298188    13
